{"signature":{"version":"1.3","source":"NASA/JPL Small-Body Database (SBDB) API"},"orbit":{"n_dop_obs_used":30,"not_valid_after":null,"moid":".000107917","rms":".25657","t_jup":"6.466","moid_jup":"4.12376","sb_used":"SB441-N16","pe_used":"DE441","equinox":"J2000","condition_code":"0","first_obs":"2004-03-15","n_del_obs_used":20,"data_arc":"6599","not_valid_before":null,"elements":[{"sigma":"1.8376E-9","label":"e","title":"eccentricity","name":"e","value":".1911492279663492","units":null},{"label":"a","sigma":"1.5667E-9","units":"au","value":".9223592206975018","name":"a","title":"semi-major axis"},{"label":"q","sigma":"2.8517E-9","value":".7460509677535309","units":"au","name":"q","title":"perihelion distance"},{"value":"3.340996879880978","units":"deg","name":"i","title":"inclination; angle with respect to x-y ecliptic plane","label":"i","sigma":"9.903E-8"},{"units":"deg","value":"203.8936514240762","name":"om","title":"longitude of the ascending node","label":"node","sigma":"3.0657E-6"},{"title":"argument of perihelion","name":"w","units":"deg","value":"126.6795706895841","sigma":"3.3086E-6","label":"peri"},{"label":"M","sigma":"5.2809E-7","units":"deg","value":"175.3304026592739","name":"ma","title":"mean anomaly"},{"label":"tp","sigma":"7.0729E-7","units":"TDB","value":"2461042.919201488142","name":"tp","title":"time of perihelion passage"},{"sigma":"8.244E-7","label":"period","title":"sidereal orbital period","name":"per","value":"323.5553366891694","units":"d"},{"units":"deg/d","value":"1.112638115271892","name":"n","title":"mean motion","label":"n","sigma":"2.8349E-9"},{"units":"au","value":"1.098667473641473","title":"aphelion distance","name":"ad","label":"Q","sigma":"1.8662E-9"}],"last_obs":"2022-04-09","comment":null,"cov_epoch":"2459215.5","source":"JPL","n_obs_used":7370,"orbit_id":"220","two_body":null,"epoch":"2461200.5","soln_date":"2024-06-25 10:48:08","producer":"Davide Farnocchia","model_pars":[{"name":"A1","title":"non-grav. radial accel.","n":1,"desc":"non-gravitational radial acceleration parameter","units":"au/d^2","value":"5.E-13","kind":"EST","sigma":"4.892E-13"},{"name":"A2","title":"non-grav. transverse accel.","n":2,"desc":"non-gravitational transverse acceleration parameter","kind":"EST","units":"au/d^2","value":"-2.901766637153165E-14","sigma":"1.859E-16"},{"sigma":null,"kind":"SET","units":null,"value":"1.","desc":"normalizing factor [default 0.1112620426]","n":0,"name":"ALN","title":"normalizing factor"},{"name":"NK","title":"non-grav. model exp. k","n":0,"desc":"non-grav. model constant, exponent k [default 4.6142]","sigma":null,"units":null,"value":"0.","kind":"SET"},{"sigma":null,"units":null,"value":"2.","kind":"SET","n":0,"desc":"non-grav. model constant, exponent m [default 2.15]","name":"NM","title":"non-grav. model exp. m"},{"sigma":null,"value":"1.","units":"au","kind":"SET","title":"normalizing distance","name":"R0","n":0,"desc":"normalizing distance, au [default 2.808 au]"}]},"object":{"kind":"an","pha":true,"neo":true,"spkid":"20099942","des":"99942","shortname":"99942 Apophis","prefix":null,"orbit_id":"220","orbit_class":{"code":"ATE","name":"Aten"},"fullname":"99942 Apophis (2004 MN4)"}}
